FLOCK 4G-8              
1 62613U 25009E   26068.72381419  .00013559  00000+0  50438-3 0  9996
2 62613  97.4045 151.2834 0003050 315.2538  44.8455 15.27623414 63721
STARLINK-36500          
1 67320U 26002R   26068.42424362  .00024944  00000+0  91420-3 0  9998
2 67320  42.9968 327.1737 0000643 351.1054   8.9786 15.27533622 11095
